{
  "type": "FeatureCollection",
  "features": [
    {
      "type": "Feature",
      "properties": {
        "norad_id": 44333,
        "name": "AT&T T-16",
        "group": "intelsat",
        "lat": 0.02761613368859771,
        "lon": 114.06117519674088,
        "alt_km": 35785.158285174286,
        "timestamp": "2025-12-11T08:58:26.782609+00:00",
        "meta_object_name": "AT&T T-16",
        "meta_object_id": "2019-034A",
        "meta_epoch": "2025-12-10T23:20:04.800192",
        "meta_mean_motion": 1.00268632,
        "meta_eccentricity": 5.11e-05,
        "meta_inclination": 0.0297,
        "meta_ra_of_asc_node": 74.5044,
        "meta_arg_of_pericenter": 72.1437,
        "meta_mean_anomaly": 182.4372,
        "meta_ephemeris_type": 0,
        "meta_classification_type": "U",
        "meta_norad_cat_id": 44333,
        "meta_element_set_no": 999,
        "meta_rev_at_epoch": 2374,
        "meta_bstar": 0,
        "meta_mean_motion_dot": -1.09e-06,
        "meta_mean_motion_ddot": 0,
        "tle_line1": "1 44333U 19034A   25344.97227778 -.00000109  00000+0  00000+0 0  9990",
        "tle_line2": "2 44333   0.0297  74.5044 0000511  72.1437 182.4372  1.00268632 23743"
      },
      "geometry": {
        "type": "Point",
        "coordinates": [
          114.06117519674088,
          0.02761613368859771
        ]
      }
    },
    {
      "type": "Feature",
      "properties": {
        "norad_id": 44476,
        "name": "INTELSAT 39 (IS-39)",
        "group": "intelsat",
        "lat": -0.030227026092900545,
        "lon": -83.1059393170658,
        "alt_km": 35788.95202433996,
        "timestamp": "2025-12-11T08:58:26.782621+00:00",
        "meta_object_name": "INTELSAT 39 (IS-39)",
        "meta_object_id": "2019-049B",
        "meta_epoch": "2025-12-11T03:32:04.608384",
        "meta_mean_motion": 1.00270725,
        "meta_eccentricity": 9.43e-05,
        "meta_inclination": 0.0189,
        "meta_ra_of_asc_node": 328.3632,
        "meta_arg_of_pericenter": 178.0563,
        "meta_mean_anomaly": 48.6555,
        "meta_ephemeris_type": 0,
        "meta_classification_type": "U",
        "meta_norad_cat_id": 44476,
        "meta_element_set_no": 999,
        "meta_rev_at_epoch": 2324,
        "meta_bstar": 0,
        "meta_mean_motion_dot": 3.9e-07,
        "meta_mean_motion_ddot": 0,
        "tle_line1": "1 44476U 19049B   25345.14727556  .00000039  00000+0  00000+0 0  9994",
        "tle_line2": "2 44476   0.0189 328.3632 0000943 178.0563  48.6555  1.00270725 23246"
      },
      "geometry": {
        "type": "Point",
        "coordinates": [
          -83.1059393170658,
          -0.030227026092900545
        ]
      }
    },
    {
      "type": "Feature",
      "properties": {
        "norad_id": 46114,
        "name": "GALAXY 30 (G-30)",
        "group": "intelsat",
        "lat": 0.030617542337781804,
        "lon": 89.93785778718299,
        "alt_km": 35795.545189258795,
        "timestamp": "2025-12-11T08:58:26.782633+00:00",
        "meta_object_name": "GALAXY 30 (G-30)",
        "meta_object_id": "2020-056C",
        "meta_epoch": "2025-12-11T04:35:38.717376",
        "meta_mean_motion": 1.00272338,
        "meta_eccentricity": 0.0002306,
        "meta_inclination": 0.0165,
        "meta_ra_of_asc_node": 328.5653,
        "meta_arg_of_pericenter": 292.0277,
        "meta_mean_anomaly": 123.4727,
        "meta_ephemeris_type": 0,
        "meta_classification_type": "U",
        "meta_norad_cat_id": 46114,
        "meta_element_set_no": 999,
        "meta_rev_at_epoch": 1940,
        "meta_bstar": 0,
        "meta_mean_motion_dot": 4.3e-07,
        "meta_mean_motion_ddot": 0,
        "tle_line1": "1 46114U 20056C   25345.19142034  .00000043  00000+0  00000+0 0  9997",
        "tle_line2": "2 46114   0.0165 328.5653 0002306 292.0277 123.4727  1.00272338 19408"
      },
      "geometry": {
        "type": "Point",
        "coordinates": [
          89.93785778718299,
          0.030617542337781804
        ]
      }
    },
    {
      "type": "Feature",
      "properties": {
        "norad_id": 54026,
        "name": "GALAXY 33 (G-33)",
        "group": "intelsat",
        "lat": 0.027025414666830533,
        "lon": 81.94257086557018,
        "alt_km": 35794.84549977212,
        "timestamp": "2025-12-11T08:58:26.782645+00:00",
        "meta_object_name": "GALAXY 33 (G-33)",
        "meta_object_id": "2022-128A",
        "meta_epoch": "2025-12-11T04:43:38.646048",
        "meta_mean_motion": 1.00271089,
        "meta_eccentricity": 0.0002044,
        "meta_inclination": 0.0115,
        "meta_ra_of_asc_node": 323.4657,
        "meta_arg_of_pericenter": 291.2943,
        "meta_mean_anomaly": 123.315,
        "meta_ephemeris_type": 0,
        "meta_classification_type": "U",
        "meta_norad_cat_id": 54026,
        "meta_element_set_no": 999,
        "meta_rev_at_epoch": 1185,
        "meta_bstar": 0,
        "meta_mean_motion_dot": 8.5e-07,
        "meta_mean_motion_ddot": 0,
        "tle_line1": "1 54026U 22128A   25345.19697507  .00000085  00000+0  00000+0 0  9996",
        "tle_line2": "2 54026   0.0115 323.4657 0002044 291.2943 123.3150  1.00271089 11854"
      },
      "geometry": {
        "type": "Point",
        "coordinates": [
          81.94257086557018,
          0.027025414666830533
        ]
      }
    },
    {
      "type": "Feature",
      "properties": {
        "norad_id": 54027,
        "name": "GALAXY 34 (G-34)",
        "group": "intelsat",
        "lat": 0.03903096375415579,
        "lon": 86.00610315146523,
        "alt_km": 35792.822486527504,
        "timestamp": "2025-12-11T08:58:26.782656+00:00",
        "meta_object_name": "GALAXY 34 (G-34)",
        "meta_object_id": "2022-128B",
        "meta_epoch": "2025-12-11T04:35:38.717376",
        "meta_mean_motion": 1.00269657,
        "meta_eccentricity": 0.0001485,
        "meta_inclination": 0.0228,
        "meta_ra_of_asc_node": 336.4387,
        "meta_arg_of_pericenter": 278.067,
        "meta_mean_anomaly": 125.6291,
        "meta_ephemeris_type": 0,
        "meta_classification_type": "U",
        "meta_norad_cat_id": 54027,
        "meta_element_set_no": 999,
        "meta_rev_at_epoch": 1202,
        "meta_bstar": 0,
        "meta_mean_motion_dot": 0,
        "meta_mean_motion_ddot": 0,
        "tle_line1": "1 54027U 22128B   25345.19142034  .00000000  00000+0  00000+0 0  9994",
        "tle_line2": "2 54027   0.0228 336.4387 0001485 278.0670 125.6291  1.00269657 12021"
      },
      "geometry": {
        "type": "Point",
        "coordinates": [
          86.00610315146523,
          0.03903096375415579
        ]
      }
    },
    {
      "type": "Feature",
      "properties": {
        "norad_id": 54243,
        "name": "GALAXY 31 (G-31)",
        "group": "intelsat",
        "lat": 0.007559469761656219,
        "lon": 93.95186433523922,
        "alt_km": 35793.639367941054,
        "timestamp": "2025-12-11T08:58:26.782668+00:00",
        "meta_object_name": "GALAXY 31 (G-31)",
        "meta_object_id": "2022-153A",
        "meta_epoch": "2025-12-10T23:14:20.350176",
        "meta_mean_motion": 1.00272485,
        "meta_eccentricity": 0.0001839,
        "meta_inclination": 0.0145,
        "meta_ra_of_asc_node": 258.162,
        "meta_arg_of_pericenter": 13.4578,
        "meta_mean_anomaly": 35.9092,
        "meta_ephemeris_type": 0,
        "meta_classification_type": "U",
        "meta_norad_cat_id": 54243,
        "meta_element_set_no": 999,
        "meta_rev_at_epoch": 524,
        "meta_bstar": 0,
        "meta_mean_motion_dot": 1.8e-07,
        "meta_mean_motion_ddot": 0,
        "tle_line1": "1 54243U 22153A   25344.96829109  .00000018  00000+0  00000+0 0  9990",
        "tle_line2": "2 54243   0.0145 258.1620 0001839  13.4578  35.9092  1.00272485  5241"
      },
      "geometry": {
        "type": "Point",
        "coordinates": [
          93.95186433523922,
          0.007559469761656219
        ]
      }
    },
    {
      "type": "Feature",
      "properties": {
        "norad_id": 54244,
        "name": "GALAXY 32 (G-32)",
        "group": "intelsat",
        "lat": 0.016767112272525263,
        "lon": 123.93564399089283,
        "alt_km": 35797.15947844302,
        "timestamp": "2025-12-11T08:58:26.782679+00:00",
        "meta_object_name": "GALAXY 32 (G-32)",
        "meta_object_id": "2022-153B",
        "meta_epoch": "2025-12-10T11:23:53.431008",
        "meta_mean_motion": 1.00269631,
        "meta_eccentricity": 0.00024863,
        "meta_inclination": 0.0094,
        "meta_ra_of_asc_node": 343.9176,
        "meta_arg_of_pericenter": 325.4249,
        "meta_mean_anomaly": 210.0765,
        "meta_ephemeris_type": 0,
        "meta_classification_type": "U",
        "meta_norad_cat_id": 54244,
        "meta_element_set_no": 999,
        "meta_rev_at_epoch": 1125,
        "meta_bstar": 0,
        "meta_mean_motion_dot": -1.7e-06,
        "meta_mean_motion_ddot": 0,
        "tle_line1": "1 54244U 22153B   25344.47492397 -.00000170  00000+0  00000+0 0  9992",
        "tle_line2": "2 54244   0.0094 343.9176 0002486 325.4249 210.0765  1.00269631 11254"
      },
      "geometry": {
        "type": "Point",
        "coordinates": [
          123.93564399089283,
          0.016767112272525263
        ]
      }
    }
  ]
}